<?xml version="1.0" encoding="UTF-8"?>
<kml xmlns="http://www.opengis.net/kml/2.2" xmlns:gx="http://www.google.com/kml/ext/2.2" xmlns:kml="http://www.opengis.net/kml/2.2" xmlns:atom="http://www.w3.org/2005/Atom">
<Document>
	<name>Polygons</name>
	<gx:CascadingStyle kml:id="__managed_style_20925B2794380EB69F10">
		<Style>
			<IconStyle>
				<scale>1.2</scale>
				<Icon>
					<href>https://earth.google.com/earth/document/icon?color=1976d2&amp;id=2000&amp;scale=4</href>
				</Icon>
				<hotSpot x="64" y="128" xunits="pixels" yunits="insetPixels"/>
			</IconStyle>
			<LabelStyle>
			</LabelStyle>
			<LineStyle>
				<color>ff2dc0fb</color>
				<width>6</width>
			</LineStyle>
			<PolyStyle>
				<color>40ffffff</color>
			</PolyStyle>
			<BalloonStyle>
				<displayMode>hide</displayMode>
			</BalloonStyle>
		</Style>
	</gx:CascadingStyle>
	<gx:CascadingStyle kml:id="__managed_style_370EDB6BFD380EB69F0F">
		<Style>
			<IconStyle>
				<scale>1.2</scale>
				<Icon>
					<href>https://earth.google.com/earth/document/icon?color=1976d2&amp;id=2000&amp;scale=4</href>
				</Icon>
				<hotSpot x="64" y="128" xunits="pixels" yunits="insetPixels"/>
			</IconStyle>
			<LabelStyle>
			</LabelStyle>
			<LineStyle>
				<color>ffbc47ab</color>
				<width>3</width>
			</LineStyle>
			<PolyStyle>
				<color>80bc47ab</color>
			</PolyStyle>
			<BalloonStyle>
				<displayMode>hide</displayMode>
			</BalloonStyle>
		</Style>
	</gx:CascadingStyle>
	<StyleMap id="__managed_style_0FE8817E7B380EB69F10">
		<Pair>
			<key>normal</key>
			<styleUrl>#__managed_style_16603F9935380EB69F10</styleUrl>
		</Pair>
		<Pair>
			<key>highlight</key>
			<styleUrl>#__managed_style_20925B2794380EB69F10</styleUrl>
		</Pair>
	</StyleMap>
	<gx:CascadingStyle kml:id="__managed_style_5040B4F8BE380EB69F0F">
		<Style>
			<IconStyle>
				<Icon>
					<href>https://earth.google.com/earth/document/icon?color=1976d2&amp;id=2000&amp;scale=4</href>
				</Icon>
				<hotSpot x="64" y="128" xunits="pixels" yunits="insetPixels"/>
			</IconStyle>
			<LabelStyle>
			</LabelStyle>
			<LineStyle>
				<color>ff2dc0fb</color>
				<width>2</width>
			</LineStyle>
			<PolyStyle>
				<color>8058eeff</color>
			</PolyStyle>
			<BalloonStyle>
				<displayMode>hide</displayMode>
			</BalloonStyle>
		</Style>
	</gx:CascadingStyle>
	<StyleMap id="__managed_style_14A5CA946D380EB69F0F">
		<Pair>
			<key>normal</key>
			<styleUrl>#__managed_style_255FC2B020380EB69F0F</styleUrl>
		</Pair>
		<Pair>
			<key>highlight</key>
			<styleUrl>#__managed_style_370EDB6BFD380EB69F0F</styleUrl>
		</Pair>
	</StyleMap>
	<gx:CascadingStyle kml:id="__managed_style_791446CDAD380EB69F0E">
		<Style>
			<IconStyle>
				<Icon>
					<href>https://earth.google.com/earth/document/icon?color=1976d2&amp;id=2000&amp;scale=4</href>
				</Icon>
				<hotSpot x="64" y="128" xunits="pixels" yunits="insetPixels"/>
			</IconStyle>
			<LabelStyle>
			</LabelStyle>
			<LineStyle>
				<color>ff2dc0fb</color>
				<width>2</width>
			</LineStyle>
			<PolyStyle>
				<color>4058eeff</color>
			</PolyStyle>
			<BalloonStyle>
				<displayMode>hide</displayMode>
			</BalloonStyle>
		</Style>
	</gx:CascadingStyle>
	<StyleMap id="__managed_style_4CD7B443B1380EB69F0F">
		<Pair>
			<key>normal</key>
			<styleUrl>#__managed_style_5040B4F8BE380EB69F0F</styleUrl>
		</Pair>
		<Pair>
			<key>highlight</key>
			<styleUrl>#__managed_style_62EFFA8CFB380EB69F0F</styleUrl>
		</Pair>
	</StyleMap>
	<StyleMap id="__managed_style_617C579A99380EB69F0E">
		<Pair>
			<key>normal</key>
			<styleUrl>#__managed_style_791446CDAD380EB69F0E</styleUrl>
		</Pair>
		<Pair>
			<key>highlight</key>
			<styleUrl>#__managed_style_017F9FD6B5380EB69F0F</styleUrl>
		</Pair>
	</StyleMap>
	<gx:CascadingStyle kml:id="__managed_style_017F9FD6B5380EB69F0F">
		<Style>
			<IconStyle>
				<scale>1.2</scale>
				<Icon>
					<href>https://earth.google.com/earth/document/icon?color=1976d2&amp;id=2000&amp;scale=4</href>
				</Icon>
				<hotSpot x="64" y="128" xunits="pixels" yunits="insetPixels"/>
			</IconStyle>
			<LabelStyle>
			</LabelStyle>
			<LineStyle>
				<color>ff2dc0fb</color>
				<width>3</width>
			</LineStyle>
			<PolyStyle>
				<color>4058eeff</color>
			</PolyStyle>
			<BalloonStyle>
				<displayMode>hide</displayMode>
			</BalloonStyle>
		</Style>
	</gx:CascadingStyle>
	<gx:CascadingStyle kml:id="__managed_style_2CDEEEC730380EB69F0E">
		<Style>
			<IconStyle>
				<scale>1.2</scale>
				<Icon>
					<href>https://earth.google.com/earth/document/icon?color=1976d2&amp;id=2000&amp;scale=4</href>
				</Icon>
				<hotSpot x="64" y="128" xunits="pixels" yunits="insetPixels"/>
			</IconStyle>
			<LabelStyle>
			</LabelStyle>
			<LineStyle>
				<color>ffbc47ab</color>
				<width>3</width>
			</LineStyle>
			<PolyStyle>
				<color>40bc47ab</color>
			</PolyStyle>
			<BalloonStyle>
				<displayMode>hide</displayMode>
			</BalloonStyle>
		</Style>
	</gx:CascadingStyle>
	<gx:CascadingStyle kml:id="__managed_style_5E8E91BF52380EB69F0C">
		<Style>
			<IconStyle>
				<scale>1.2</scale>
				<Icon>
					<href>https://earth.google.com/earth/document/icon?color=1976d2&amp;id=2000&amp;scale=4</href>
				</Icon>
				<hotSpot x="64" y="128" xunits="pixels" yunits="insetPixels"/>
			</IconStyle>
			<LabelStyle>
			</LabelStyle>
			<LineStyle>
				<color>ff2dc0fb</color>
				<width>3</width>
			</LineStyle>
			<PolyStyle>
				<color>40ffffff</color>
			</PolyStyle>
			<BalloonStyle>
				<displayMode>hide</displayMode>
			</BalloonStyle>
		</Style>
	</gx:CascadingStyle>
	<StyleMap id="__managed_style_39F9DE880D380EB69F0E">
		<Pair>
			<key>normal</key>
			<styleUrl>#__managed_style_4F9CBD6494380EB69F0E</styleUrl>
		</Pair>
		<Pair>
			<key>highlight</key>
			<styleUrl>#__managed_style_5682FA43C9380EB69F0E</styleUrl>
		</Pair>
	</StyleMap>
	<gx:CascadingStyle kml:id="__managed_style_255FC2B020380EB69F0F">
		<Style>
			<IconStyle>
				<Icon>
					<href>https://earth.google.com/earth/document/icon?color=1976d2&amp;id=2000&amp;scale=4</href>
				</Icon>
				<hotSpot x="64" y="128" xunits="pixels" yunits="insetPixels"/>
			</IconStyle>
			<LabelStyle>
			</LabelStyle>
			<LineStyle>
				<color>ffbc47ab</color>
				<width>2</width>
			</LineStyle>
			<PolyStyle>
				<color>80bc47ab</color>
			</PolyStyle>
			<BalloonStyle>
				<displayMode>hide</displayMode>
			</BalloonStyle>
		</Style>
	</gx:CascadingStyle>
	<gx:CascadingStyle kml:id="__managed_style_187F092F1D380EB69F0E">
		<Style>
			<IconStyle>
				<Icon>
					<href>https://earth.google.com/earth/document/icon?color=1976d2&amp;id=2000&amp;scale=4</href>
				</Icon>
				<hotSpot x="64" y="128" xunits="pixels" yunits="insetPixels"/>
			</IconStyle>
			<LabelStyle>
			</LabelStyle>
			<LineStyle>
				<color>ffbc47ab</color>
				<width>2</width>
			</LineStyle>
			<PolyStyle>
				<color>40bc47ab</color>
			</PolyStyle>
			<BalloonStyle>
				<displayMode>hide</displayMode>
			</BalloonStyle>
		</Style>
	</gx:CascadingStyle>
	<StyleMap id="__managed_style_07DC918500380EB69F0C">
		<Pair>
			<key>normal</key>
			<styleUrl>#__managed_style_1D0F5F7C93380EB69F0C</styleUrl>
		</Pair>
		<Pair>
			<key>highlight</key>
			<styleUrl>#__managed_style_28E3222EA5380EB69F0C</styleUrl>
		</Pair>
	</StyleMap>
	<StyleMap id="__managed_style_0ED40609A3380EB69F0E">
		<Pair>
			<key>normal</key>
			<styleUrl>#__managed_style_187F092F1D380EB69F0E</styleUrl>
		</Pair>
		<Pair>
			<key>highlight</key>
			<styleUrl>#__managed_style_2CDEEEC730380EB69F0E</styleUrl>
		</Pair>
	</StyleMap>
	<StyleMap id="__managed_style_3090E54630380EB69F0C">
		<Pair>
			<key>normal</key>
			<styleUrl>#__managed_style_46061F7DB9380EB69F0C</styleUrl>
		</Pair>
		<Pair>
			<key>highlight</key>
			<styleUrl>#__managed_style_5E8E91BF52380EB69F0C</styleUrl>
		</Pair>
	</StyleMap>
	<gx:CascadingStyle kml:id="__managed_style_16603F9935380EB69F10">
		<Style>
			<IconStyle>
				<Icon>
					<href>https://earth.google.com/earth/document/icon?color=1976d2&amp;id=2000&amp;scale=4</href>
				</Icon>
				<hotSpot x="64" y="128" xunits="pixels" yunits="insetPixels"/>
			</IconStyle>
			<LabelStyle>
			</LabelStyle>
			<LineStyle>
				<color>ff2dc0fb</color>
				<width>4</width>
			</LineStyle>
			<PolyStyle>
				<color>40ffffff</color>
			</PolyStyle>
			<BalloonStyle>
				<displayMode>hide</displayMode>
			</BalloonStyle>
		</Style>
	</gx:CascadingStyle>
	<gx:CascadingStyle kml:id="__managed_style_62EFFA8CFB380EB69F0F">
		<Style>
			<IconStyle>
				<scale>1.2</scale>
				<Icon>
					<href>https://earth.google.com/earth/document/icon?color=1976d2&amp;id=2000&amp;scale=4</href>
				</Icon>
				<hotSpot x="64" y="128" xunits="pixels" yunits="insetPixels"/>
			</IconStyle>
			<LabelStyle>
			</LabelStyle>
			<LineStyle>
				<color>ff2dc0fb</color>
				<width>3</width>
			</LineStyle>
			<PolyStyle>
				<color>8058eeff</color>
			</PolyStyle>
			<BalloonStyle>
				<displayMode>hide</displayMode>
			</BalloonStyle>
		</Style>
	</gx:CascadingStyle>
	<gx:CascadingStyle kml:id="__managed_style_5682FA43C9380EB69F0E">
		<Style>
			<IconStyle>
				<scale>1.2</scale>
				<Icon>
					<href>https://earth.google.com/earth/document/icon?color=1976d2&amp;id=2000&amp;scale=4</href>
				</Icon>
				<hotSpot x="64" y="128" xunits="pixels" yunits="insetPixels"/>
			</IconStyle>
			<LabelStyle>
			</LabelStyle>
			<LineStyle>
				<color>ff2dc0fb</color>
				<width>3</width>
			</LineStyle>
			<PolyStyle>
				<color>402dc0fb</color>
			</PolyStyle>
			<BalloonStyle>
				<displayMode>hide</displayMode>
			</BalloonStyle>
		</Style>
	</gx:CascadingStyle>
	<gx:CascadingStyle kml:id="__managed_style_46061F7DB9380EB69F0C">
		<Style>
			<IconStyle>
				<Icon>
					<href>https://earth.google.com/earth/document/icon?color=1976d2&amp;id=2000&amp;scale=4</href>
				</Icon>
				<hotSpot x="64" y="128" xunits="pixels" yunits="insetPixels"/>
			</IconStyle>
			<LabelStyle>
			</LabelStyle>
			<LineStyle>
				<color>ff2dc0fb</color>
				<width>2</width>
			</LineStyle>
			<PolyStyle>
				<color>40ffffff</color>
			</PolyStyle>
			<BalloonStyle>
				<displayMode>hide</displayMode>
			</BalloonStyle>
		</Style>
	</gx:CascadingStyle>
	<gx:CascadingStyle kml:id="__managed_style_4F9CBD6494380EB69F0E">
		<Style>
			<IconStyle>
				<Icon>
					<href>https://earth.google.com/earth/document/icon?color=1976d2&amp;id=2000&amp;scale=4</href>
				</Icon>
				<hotSpot x="64" y="128" xunits="pixels" yunits="insetPixels"/>
			</IconStyle>
			<LabelStyle>
			</LabelStyle>
			<LineStyle>
				<color>ff2dc0fb</color>
				<width>2</width>
			</LineStyle>
			<PolyStyle>
				<color>402dc0fb</color>
			</PolyStyle>
			<BalloonStyle>
				<displayMode>hide</displayMode>
			</BalloonStyle>
		</Style>
	</gx:CascadingStyle>
	<gx:CascadingStyle kml:id="__managed_style_28E3222EA5380EB69F0C">
		<Style>
			<IconStyle>
				<scale>1.2</scale>
				<Icon>
					<href>https://maps.google.com/mapfiles/kml/pushpin/ylw-pushpin.png</href>
				</Icon>
			</IconStyle>
			<LabelStyle>
			</LabelStyle>
			<LineStyle>
				<width>1.5</width>
			</LineStyle>
			<PolyStyle>
				<color>fff5a542</color>
			</PolyStyle>
			<BalloonStyle>
			</BalloonStyle>
		</Style>
	</gx:CascadingStyle>
	<gx:CascadingStyle kml:id="__managed_style_1D0F5F7C93380EB69F0C">
		<Style>
			<IconStyle>
				<Icon>
					<href>https://maps.google.com/mapfiles/kml/pushpin/ylw-pushpin.png</href>
				</Icon>
			</IconStyle>
			<LabelStyle>
			</LabelStyle>
			<LineStyle>
			</LineStyle>
			<PolyStyle>
				<color>fff5a542</color>
			</PolyStyle>
			<BalloonStyle>
			</BalloonStyle>
		</Style>
	</gx:CascadingStyle>
	<Placemark id="15">
		<name>FlyZone</name>
		<visibility>0</visibility>
		<styleUrl>#__managed_style_07DC918500380EB69F0C</styleUrl>
		<Polygon>
			<outerBoundaryIs>
				<LinearRing>
					<coordinates>
						-98.08175467827154,33.46540647154395,0 -98.08175467827154,32.473238193139,0 -96.11033479742945,32.473238193139,0 -96.11033479742945,33.46540647154395,0 -98.08175467827154,33.46540647154395,0 
					</coordinates>
				</LinearRing>
			</outerBoundaryIs>
		</Polygon>
	</Placemark>
	<Placemark id="0355DD4CFD328CCA6A92">
		<name>Destination5</name>
		<visibility>0</visibility>
		<LookAt>
			<longitude>-96.46922525027668</longitude>
			<latitude>32.77834777376654</latitude>
			<altitude>109.0624187362952</altitude>
			<heading>69.54700380486433</heading>
			<tilt>47.8237843053388</tilt>
			<gx:fovy>35</gx:fovy>
			<range>164187.7582788281</range>
			<altitudeMode>absolute</altitudeMode>
		</LookAt>
		<styleUrl>#__managed_style_3090E54630380EB69F0C</styleUrl>
		<Point>
			<coordinates>-96.25240315092798,32.56872389981035,150.1677986377836</coordinates>
		</Point>
	</Placemark>
	<Placemark id="00BFC554BE328CCBF25B">
		<name>Origin1</name>
		<visibility>0</visibility>
		<LookAt>
			<longitude>-98.1206917120401</longitude>
			<latitude>33.07021963692636</latitude>
			<altitude>331.8928913603969</altitude>
			<heading>-123.6454648229454</heading>
			<tilt>49.8538262828955</tilt>
			<gx:fovy>35</gx:fovy>
			<range>105889.1937853396</range>
			<altitudeMode>absolute</altitudeMode>
		</LookAt>
		<styleUrl>#__managed_style_3090E54630380EB69F0C</styleUrl>
		<Point>
			<coordinates>-97.97049083032648,33.35943058181385,274.2121167616264</coordinates>
		</Point>
	</Placemark>
	<Placemark id="044BD7F4B7378ED1ACE6">
		<name>poly1-1</name>
		<visibility>0</visibility>
		<LookAt>
			<longitude>-97.37683315930106</longitude>
			<latitude>33.06559805879053</latitude>
			<altitude>302.1502674662312</altitude>
			<heading>0</heading>
			<tilt>0</tilt>
			<gx:fovy>35</gx:fovy>
			<range>280917.5239521638</range>
			<altitudeMode>absolute</altitudeMode>
		</LookAt>
		<styleUrl>#__managed_style_0ED40609A3380EB69F0E</styleUrl>
		<Polygon>
			<outerBoundaryIs>
				<LinearRing>
					<coordinates>
						-97.5131915114126,33.2521421719557,0 -97.3543421959713,33.14986625761568,0 -97.1040178611416,33.3748278574298,0 -97.26251941204595,33.42472363691155,0 -97.5131915114126,33.2521421719557,0 
					</coordinates>
				</LinearRing>
			</outerBoundaryIs>
		</Polygon>
	</Placemark>
	<Placemark id="0FB57A1E4B378ED21B00">
		<name>poly1-2</name>
		<visibility>0</visibility>
		<LookAt>
			<longitude>-96.71224733080348</longitude>
			<latitude>33.32087024122074</latitude>
			<altitude>221.7230061296467</altitude>
			<heading>0</heading>
			<tilt>0</tilt>
			<gx:fovy>35</gx:fovy>
			<range>350361.5455216169</range>
			<altitudeMode>absolute</altitudeMode>
		</LookAt>
		<styleUrl>#__managed_style_0ED40609A3380EB69F0E</styleUrl>
		<Polygon>
			<outerBoundaryIs>
				<LinearRing>
					<coordinates>
						-97.0362883826178,33.0038090369116,0 -96.77301368942616,32.8142061145283,0 -96.43717883414324,33.1167812793031,0 -96.4888076705265,33.33150531483712,0 -97.0362883826178,33.0038090369116,0 
					</coordinates>
				</LinearRing>
			</outerBoundaryIs>
		</Polygon>
	</Placemark>
	<Placemark id="01780170B3378ED2B427">
		<name>poly1-3</name>
		<visibility>0</visibility>
		<LookAt>
			<longitude>-97.33374949279629</longitude>
			<latitude>32.9587145751801</latitude>
			<altitude>276.9325091271187</altitude>
			<heading>0</heading>
			<tilt>0</tilt>
			<gx:fovy>35</gx:fovy>
			<range>269517.4381404743</range>
			<altitudeMode>absolute</altitudeMode>
		</LookAt>
		<styleUrl>#__managed_style_0ED40609A3380EB69F0E</styleUrl>
		<Polygon>
			<outerBoundaryIs>
				<LinearRing>
					<coordinates>
						-97.64305613442188,32.82552207473631,0 -97.51021895187087,32.71790236146404,0 -97.248320741988,32.90479019134737,0 -97.41620738871356,33.04850170536172,0 -97.64305613442188,32.82552207473631,0 
					</coordinates>
				</LinearRing>
			</outerBoundaryIs>
		</Polygon>
	</Placemark>
	<Placemark id="085A9529E5378ED2FD0C">
		<name>poly1-4</name>
		<visibility>0</visibility>
		<LookAt>
			<longitude>-97.33374949279629</longitude>
			<latitude>32.9587145751801</latitude>
			<altitude>276.9325091271187</altitude>
			<heading>0</heading>
			<tilt>0</tilt>
			<gx:fovy>35</gx:fovy>
			<range>269517.4381404743</range>
			<altitudeMode>absolute</altitudeMode>
		</LookAt>
		<styleUrl>#__managed_style_0ED40609A3380EB69F0E</styleUrl>
		<Polygon>
			<outerBoundaryIs>
				<LinearRing>
					<coordinates>
						-97.30852647226689,32.61169365638083,0 -97.20762624013004,32.62465113429059,0 -97.17296178563959,32.70402439311429,0 -97.26540668812679,32.69394646738718,0 -97.30852647226689,32.61169365638083,0 
					</coordinates>
				</LinearRing>
			</outerBoundaryIs>
		</Polygon>
	</Placemark>
	<Placemark id="05C08A2DB9378ED340DC">
		<name>poly1-5</name>
		<visibility>0</visibility>
		<LookAt>
			<longitude>-97.33374949279629</longitude>
			<latitude>32.9587145751801</latitude>
			<altitude>276.9325091271187</altitude>
			<heading>0</heading>
			<tilt>0</tilt>
			<gx:fovy>35</gx:fovy>
			<range>269517.4381404743</range>
			<altitudeMode>absolute</altitudeMode>
		</LookAt>
		<styleUrl>#__managed_style_0ED40609A3380EB69F0E</styleUrl>
		<Polygon>
			<outerBoundaryIs>
				<LinearRing>
					<coordinates>
						-97.02979904245203,32.64444959835556,0 -96.94821456725089,32.64651844798027,0 -96.93204156518782,32.72122301967931,0 -97.02317881246215,32.72188156970833,0 -97.02979904245203,32.64444959835556,0 
					</coordinates>
				</LinearRing>
			</outerBoundaryIs>
		</Polygon>
	</Placemark>
	<Placemark id="03B0D5CC72378ED39D61">
		<name>poly1-6</name>
		<visibility>0</visibility>
		<LookAt>
			<longitude>-97.33374949279629</longitude>
			<latitude>32.9587145751801</latitude>
			<altitude>276.9325091271187</altitude>
			<heading>0</heading>
			<tilt>0</tilt>
			<gx:fovy>35</gx:fovy>
			<range>269517.4381404743</range>
			<altitudeMode>absolute</altitudeMode>
		</LookAt>
		<styleUrl>#__managed_style_0ED40609A3380EB69F0E</styleUrl>
		<Polygon>
			<outerBoundaryIs>
				<LinearRing>
					<coordinates>
						-96.55858334020182,32.63514630746239,0 -96.50669673966614,32.68644779550982,0 -96.57086760681547,32.76846434586257,0 -96.62882462447186,32.69048979067527,0 -96.55858334020182,32.63514630746239,0 
					</coordinates>
				</LinearRing>
			</outerBoundaryIs>
		</Polygon>
	</Placemark>
	<Placemark id="043B1C08A9378ED40477">
		<name>poly1-7</name>
		<visibility>0</visibility>
		<LookAt>
			<longitude>-97.38050205694353</longitude>
			<latitude>32.9640457229879</latitude>
			<altitude>287.4826328884672</altitude>
			<heading>0</heading>
			<tilt>0</tilt>
			<gx:fovy>35</gx:fovy>
			<range>312087.0384440571</range>
			<altitudeMode>absolute</altitudeMode>
		</LookAt>
		<styleUrl>#__managed_style_0ED40609A3380EB69F0E</styleUrl>
		<Polygon>
			<outerBoundaryIs>
				<LinearRing>
					<coordinates>
						-96.76462027396335,33.4275947902558,0 -96.88426892789849,33.41143157542945,0 -96.86899284672722,33.31519990815053,0 -96.77883779445641,33.3244263860771,0 -96.76462027396335,33.4275947902558,0 
					</coordinates>
				</LinearRing>
			</outerBoundaryIs>
		</Polygon>
	</Placemark>
	<Placemark id="0605575650378ECE1668">
		<name>poly2-1</name>
		<visibility>0</visibility>
		<LookAt>
			<longitude>-97.27231451597774</longitude>
			<latitude>33.05577470736746</latitude>
			<altitude>288.5612843630112</altitude>
			<heading>0</heading>
			<tilt>0</tilt>
			<gx:fovy>35</gx:fovy>
			<range>275783.3675118908</range>
			<altitudeMode>absolute</altitudeMode>
		</LookAt>
		<styleUrl>#__managed_style_39F9DE880D380EB69F0E</styleUrl>
		<Polygon>
			<outerBoundaryIs>
				<LinearRing>
					<coordinates>
						-97.5719886936733,33.19519934952872,0 -97.4307261808362,33.15577905932639,0 -97.32167669497535,33.37905927107127,0 -97.47353201084802,33.41849434923302,0 -97.5719886936733,33.19519934952872,0 
					</coordinates>
				</LinearRing>
			</outerBoundaryIs>
		</Polygon>
	</Placemark>
	<Placemark id="079B1759F9378ECE7764">
		<name>poly2-2</name>
		<visibility>0</visibility>
		<LookAt>
			<longitude>-97.27231451597774</longitude>
			<latitude>33.05577470736746</latitude>
			<altitude>288.5612843630112</altitude>
			<heading>0</heading>
			<tilt>0</tilt>
			<gx:fovy>35</gx:fovy>
			<range>275783.3675118908</range>
			<altitudeMode>absolute</altitudeMode>
		</LookAt>
		<styleUrl>#__managed_style_617C579A99380EB69F0E</styleUrl>
		<Polygon>
			<outerBoundaryIs>
				<LinearRing>
					<coordinates>
						-97.17636825163594,33.03311681245663,0 -96.79657819803334,32.93060518889686,0 -96.4173909818433,33.22326056285716,0 -96.95581007352806,33.42829034319259,0 -97.17636825163594,33.03311681245663,0 
					</coordinates>
				</LinearRing>
			</outerBoundaryIs>
		</Polygon>
	</Placemark>
	<Placemark id="0C8923F461378ECEBEC7">
		<name>poly2-3</name>
		<visibility>0</visibility>
		<LookAt>
			<longitude>-97.27231451597774</longitude>
			<latitude>33.05577470736746</latitude>
			<altitude>288.5612843630112</altitude>
			<heading>0</heading>
			<tilt>0</tilt>
			<gx:fovy>35</gx:fovy>
			<range>275783.3675118908</range>
			<altitudeMode>absolute</altitudeMode>
		</LookAt>
		<styleUrl>#__managed_style_617C579A99380EB69F0E</styleUrl>
		<Polygon>
			<outerBoundaryIs>
				<LinearRing>
					<coordinates>
						-97.72175477586947,32.72309232539791,0 -97.59202667763842,32.67737439658171,0 -97.30619863391865,32.93364669529877,0 -97.4866830405016,33.06210236833918,0 -97.72175477586947,32.72309232539791,0 
					</coordinates>
				</LinearRing>
			</outerBoundaryIs>
		</Polygon>
	</Placemark>
	<Placemark id="0D917F4309378ECEFE89">
		<name>poly2-4</name>
		<visibility>0</visibility>
		<LookAt>
			<longitude>-97.27231451597774</longitude>
			<latitude>33.05577470736746</latitude>
			<altitude>288.5612843630112</altitude>
			<heading>0</heading>
			<tilt>0</tilt>
			<gx:fovy>35</gx:fovy>
			<range>275783.3675118908</range>
			<altitudeMode>absolute</altitudeMode>
		</LookAt>
		<styleUrl>#__managed_style_39F9DE880D380EB69F0E</styleUrl>
		<Polygon>
			<outerBoundaryIs>
				<LinearRing>
					<coordinates>
						-97.36556712428373,32.63269352889539,0 -97.23820180389579,32.67496049891176,0 -97.27521638328246,32.77025324961144,0 -97.37898282150118,32.71906805860901,0 -97.36556712428373,32.63269352889539,0 
					</coordinates>
				</LinearRing>
			</outerBoundaryIs>
		</Polygon>
	</Placemark>
	<Placemark id="0198598EA7378ECF8DAC">
		<name>poly2-5</name>
		<visibility>0</visibility>
		<LookAt>
			<longitude>-97.27231454223347</longitude>
			<latitude>33.05577482384365</latitude>
			<altitude>288.541884954252</altitude>
			<heading>0</heading>
			<tilt>0</tilt>
			<gx:fovy>35</gx:fovy>
			<range>275783.3437780291</range>
			<altitudeMode>absolute</altitudeMode>
		</LookAt>
		<styleUrl>#__managed_style_617C579A99380EB69F0E</styleUrl>
		<Polygon>
			<outerBoundaryIs>
				<LinearRing>
					<coordinates>
						-97.03562746601949,32.56067477295875,0 -96.97694474379242,32.61287409249559,0 -97.02763627927958,32.65169003485106,0 -97.11805898504193,32.63342508699434,0 -97.03562746601949,32.56067477295875,0 
					</coordinates>
				</LinearRing>
			</outerBoundaryIs>
		</Polygon>
	</Placemark>
	<Placemark id="001B3D7082378ECFF028">
		<name>poly2-6</name>
		<visibility>0</visibility>
		<LookAt>
			<longitude>-97.27231454223347</longitude>
			<latitude>33.05577482384365</latitude>
			<altitude>288.541884954252</altitude>
			<heading>0</heading>
			<tilt>0</tilt>
			<gx:fovy>35</gx:fovy>
			<range>275783.3437780291</range>
			<altitudeMode>absolute</altitudeMode>
		</LookAt>
		<styleUrl>#__managed_style_617C579A99380EB69F0E</styleUrl>
		<Polygon>
			<outerBoundaryIs>
				<LinearRing>
					<coordinates>
						-97.0696468467593,32.72311357457484,0 -96.97789817855751,32.69484092188036,0 -96.94407640097758,32.77894454296731,0 -97.03304341098644,32.78427467518246,0 -97.0696468467593,32.72311357457484,0 
					</coordinates>
				</LinearRing>
			</outerBoundaryIs>
		</Polygon>
	</Placemark>
	<Placemark id="07102A88BA378ED04030">
		<name>poly2-7</name>
		<visibility>0</visibility>
		<LookAt>
			<longitude>-97.27231454223347</longitude>
			<latitude>33.05577482384365</latitude>
			<altitude>288.541884954252</altitude>
			<heading>0</heading>
			<tilt>0</tilt>
			<gx:fovy>35</gx:fovy>
			<range>275783.3437780291</range>
			<altitudeMode>absolute</altitudeMode>
		</LookAt>
		<styleUrl>#__managed_style_39F9DE880D380EB69F0E</styleUrl>
		<Polygon>
			<outerBoundaryIs>
				<LinearRing>
					<coordinates>
						-96.83383689818301,32.71836498218357,0 -96.70367178934907,32.63224923814456,0 -96.61495513856508,32.75302428865582,0 -96.71563257003454,32.81062774648699,0 -96.83383689818301,32.71836498218357,0 
					</coordinates>
				</LinearRing>
			</outerBoundaryIs>
		</Polygon>
	</Placemark>
	<Placemark id="0F7FBFBD18378ECAA6A0">
		<name>poly3-1</name>
		<visibility>0</visibility>
		<LookAt>
			<longitude>-97.26559686674484</longitude>
			<latitude>33.0540840529772</latitude>
			<altitude>288.5456067159425</altitude>
			<heading>0</heading>
			<tilt>0</tilt>
			<gx:fovy>35</gx:fovy>
			<range>287012.7119221911</range>
			<altitudeMode>absolute</altitudeMode>
		</LookAt>
		<styleUrl>#__managed_style_14A5CA946D380EB69F0F</styleUrl>
		<Polygon>
			<outerBoundaryIs>
				<LinearRing>
					<coordinates>
						-97.16586277168116,33.4029998853775,0 -97.57703540379558,33.42585945569644,0 -97.69824659250391,33.00938023634333,0 -97.2746191599514,32.94648359152323,0 -97.16586277168116,33.4029998853775,0 
					</coordinates>
				</LinearRing>
			</outerBoundaryIs>
		</Polygon>
	</Placemark>
	<Placemark id="0D8566FD32378ECB0280">
		<name>poly3-2</name>
		<visibility>0</visibility>
		<LookAt>
			<longitude>-97.26559686674484</longitude>
			<latitude>33.0540840529772</latitude>
			<altitude>288.5456067159425</altitude>
			<heading>0</heading>
			<tilt>0</tilt>
			<gx:fovy>35</gx:fovy>
			<range>287012.7119221911</range>
			<altitudeMode>absolute</altitudeMode>
		</LookAt>
		<styleUrl>#__managed_style_0ED40609A3380EB69F0E</styleUrl>
		<Polygon>
			<outerBoundaryIs>
				<LinearRing>
					<coordinates>
						-96.98559773348025,33.17898762466864,0 -96.79088220039822,33.11571021510108,0 -96.72506601492734,33.27928372664324,0 -96.90417528756306,33.33119417136937,0 -96.98559773348025,33.17898762466864,0 
					</coordinates>
				</LinearRing>
			</outerBoundaryIs>
		</Polygon>
	</Placemark>
	<Placemark id="043924EEE3378ECB50E1">
		<name>poly3-3</name>
		<visibility>0</visibility>
		<LookAt>
			<longitude>-97.26559686674484</longitude>
			<latitude>33.0540840529772</latitude>
			<altitude>288.5456067159425</altitude>
			<heading>0</heading>
			<tilt>0</tilt>
			<gx:fovy>35</gx:fovy>
			<range>287012.7119221911</range>
			<altitudeMode>absolute</altitudeMode>
		</LookAt>
		<styleUrl>#__managed_style_14A5CA946D380EB69F0F</styleUrl>
		<Polygon>
			<outerBoundaryIs>
				<LinearRing>
					<coordinates>
						-96.97428787553595,32.90957280439278,0 -96.83040644869126,32.93994921191911,0 -96.82198919990445,33.00183933073791,0 -96.97401358125167,33.01022117464407,0 -96.97428787553595,32.90957280439278,0 
					</coordinates>
				</LinearRing>
			</outerBoundaryIs>
		</Polygon>
	</Placemark>
	<Placemark id="05434491A0378ECBA7F3">
		<name>poly3-4</name>
		<visibility>0</visibility>
		<LookAt>
			<longitude>-97.26559686674484</longitude>
			<latitude>33.0540840529772</latitude>
			<altitude>288.5456067159425</altitude>
			<heading>0</heading>
			<tilt>0</tilt>
			<gx:fovy>35</gx:fovy>
			<range>287012.7119221911</range>
			<altitudeMode>absolute</altitudeMode>
		</LookAt>
		<styleUrl>#__managed_style_0ED40609A3380EB69F0E</styleUrl>
		<Polygon>
			<outerBoundaryIs>
				<LinearRing>
					<coordinates>
						-96.98461585478802,32.73173363283863,0 -96.90162984624283,32.74060187381806,0 -96.9071727334931,32.8013852814103,0 -96.98895354884517,32.79853628431091,0 -96.98461585478802,32.73173363283863,0 
					</coordinates>
				</LinearRing>
			</outerBoundaryIs>
		</Polygon>
	</Placemark>
	<Placemark id="00FAA33879378ECC11EE">
		<name>poly3-5</name>
		<visibility>0</visibility>
		<LookAt>
			<longitude>-97.26559686674484</longitude>
			<latitude>33.0540840529772</latitude>
			<altitude>288.5456067159425</altitude>
			<heading>0</heading>
			<tilt>0</tilt>
			<gx:fovy>35</gx:fovy>
			<range>287012.7119221911</range>
			<altitudeMode>absolute</altitudeMode>
		</LookAt>
		<styleUrl>#__managed_style_0ED40609A3380EB69F0E</styleUrl>
		<Polygon>
			<outerBoundaryIs>
				<LinearRing>
					<coordinates>
						-97.52373010018955,32.54708651689407,0 -97.15796919495736,32.55819045150349,0 -97.19028899226439,32.77907287653278,0 -97.597584537975,32.77315929443153,0 -97.52373010018955,32.54708651689407,0 
					</coordinates>
				</LinearRing>
			</outerBoundaryIs>
		</Polygon>
	</Placemark>
	<Placemark id="06DB5835A0378ECC54C8">
		<name>poly3-6</name>
		<visibility>0</visibility>
		<LookAt>
			<longitude>-97.26559686674484</longitude>
			<latitude>33.0540840529772</latitude>
			<altitude>288.5456067159425</altitude>
			<heading>0</heading>
			<tilt>0</tilt>
			<gx:fovy>35</gx:fovy>
			<range>287012.7119221911</range>
			<altitudeMode>absolute</altitudeMode>
		</LookAt>
		<styleUrl>#__managed_style_0ED40609A3380EB69F0E</styleUrl>
		<Polygon>
			<outerBoundaryIs>
				<LinearRing>
					<coordinates>
						-96.62901536967557,33.06387504189781,0 -96.5096346723069,33.05720879055405,0 -96.50851775994722,33.17621443698102,0 -96.63150145759202,33.17875451274407,0 -96.62901536967557,33.06387504189781,0 
					</coordinates>
				</LinearRing>
			</outerBoundaryIs>
		</Polygon>
	</Placemark>
	<Placemark id="00247BF283378ECC9C09">
		<name>poly3-7</name>
		<visibility>0</visibility>
		<LookAt>
			<longitude>-97.26559686674484</longitude>
			<latitude>33.0540840529772</latitude>
			<altitude>288.5456067159425</altitude>
			<heading>0</heading>
			<tilt>0</tilt>
			<gx:fovy>35</gx:fovy>
			<range>287012.7119221911</range>
			<altitudeMode>absolute</altitudeMode>
		</LookAt>
		<styleUrl>#__managed_style_0ED40609A3380EB69F0E</styleUrl>
		<Polygon>
			<outerBoundaryIs>
				<LinearRing>
					<coordinates>
						-96.66934407821553,32.75621480520255,0 -96.49135095167517,32.80156797503704,0 -96.51773406604522,32.90975263979043,0 -96.68984976248416,32.89243107385499,0 -96.66934407821553,32.75621480520255,0 
					</coordinates>
				</LinearRing>
			</outerBoundaryIs>
		</Polygon>
	</Placemark>
	<Placemark id="0537098AFE378EC89C93">
		<name>poly4-1</name>
		<visibility>0</visibility>
		<LookAt>
			<longitude>-97.26559686674484</longitude>
			<latitude>33.0540840529772</latitude>
			<altitude>288.5456067159425</altitude>
			<heading>0</heading>
			<tilt>0</tilt>
			<gx:fovy>35</gx:fovy>
			<range>287012.7119221911</range>
			<altitudeMode>absolute</altitudeMode>
		</LookAt>
		<styleUrl>#__managed_style_4CD7B443B1380EB69F0F</styleUrl>
		<Polygon>
			<outerBoundaryIs>
				<LinearRing>
					<coordinates>
						-97.49683448737083,33.30647837149967,0 -97.25366619402162,33.14013967004164,0 -97.03876932464357,33.32940697033606,0 -97.18071709970961,33.43612863664644,0 -97.49683448737083,33.30647837149967,0 
					</coordinates>
				</LinearRing>
			</outerBoundaryIs>
		</Polygon>
	</Placemark>
	<Placemark id="081B32BC60378EC8FD53">
		<name>poly4-2</name>
		<visibility>0</visibility>
		<LookAt>
			<longitude>-97.26559686674484</longitude>
			<latitude>33.0540840529772</latitude>
			<altitude>288.5456067159425</altitude>
			<heading>0</heading>
			<tilt>0</tilt>
			<gx:fovy>35</gx:fovy>
			<range>287012.7119221911</range>
			<altitudeMode>absolute</altitudeMode>
		</LookAt>
		<styleUrl>#__managed_style_39F9DE880D380EB69F0E</styleUrl>
		<Polygon>
			<outerBoundaryIs>
				<LinearRing>
					<coordinates>
						-97.09353880593757,32.99340014428009,0 -96.87105505269727,32.86739525139438,0 -96.60138700447661,33.05107668561478,0 -96.74908438110494,33.18510331519128,0 -97.09353880593757,32.99340014428009,0 
					</coordinates>
				</LinearRing>
			</outerBoundaryIs>
		</Polygon>
	</Placemark>
	<Placemark id="0B7AC2FDA9378EC95163">
		<name>poly4-3</name>
		<visibility>0</visibility>
		<LookAt>
			<longitude>-97.26559686674484</longitude>
			<latitude>33.0540840529772</latitude>
			<altitude>288.5456067159425</altitude>
			<heading>0</heading>
			<tilt>0</tilt>
			<gx:fovy>35</gx:fovy>
			<range>287012.7119221911</range>
			<altitudeMode>absolute</altitudeMode>
		</LookAt>
		<styleUrl>#__managed_style_617C579A99380EB69F0E</styleUrl>
		<Polygon>
			<outerBoundaryIs>
				<LinearRing>
					<coordinates>
						-97.51367643363641,32.64036219108933,0 -97.26327893581548,32.63241713284402,0 -97.43309981703943,33.06336107274789,0 -97.72026159838943,32.98530247486557,0 -97.51367643363641,32.64036219108933,0 
					</coordinates>
				</LinearRing>
			</outerBoundaryIs>
		</Polygon>
	</Placemark>
	<Placemark id="0E8DA17D31378EC9A413">
		<name>poly4-4</name>
		<visibility>0</visibility>
		<LookAt>
			<longitude>-97.26559686674484</longitude>
			<latitude>33.0540840529772</latitude>
			<altitude>288.5456067159425</altitude>
			<heading>0</heading>
			<tilt>0</tilt>
			<gx:fovy>35</gx:fovy>
			<range>287012.7119221911</range>
			<altitudeMode>absolute</altitudeMode>
		</LookAt>
		<styleUrl>#__managed_style_617C579A99380EB69F0E</styleUrl>
		<Polygon>
			<outerBoundaryIs>
				<LinearRing>
					<coordinates>
						-97.02184805133403,32.54680275785925,0 -96.73932250353877,32.59627312208067,0 -96.76922790281378,32.7058084029541,0 -97.02147921056589,32.63456019017735,0 -97.02184805133403,32.54680275785925,0 
					</coordinates>
				</LinearRing>
			</outerBoundaryIs>
		</Polygon>
	</Placemark>
	<Placemark id="0AF20FB89C378ED98C60">
		<name>poly5-1</name>
		<visibility>0</visibility>
		<LookAt>
			<longitude>-97.3805020765716</longitude>
			<latitude>32.96404581002851</latitude>
			<altitude>287.4826532268672</altitude>
			<heading>0</heading>
			<tilt>0</tilt>
			<gx:fovy>35</gx:fovy>
			<range>312087.0384440571</range>
			<altitudeMode>absolute</altitudeMode>
		</LookAt>
		<styleUrl>#__managed_style_14A5CA946D380EB69F0F</styleUrl>
		<Polygon>
			<outerBoundaryIs>
				<LinearRing>
					<coordinates>
						-97.42118522847328,33.35949314194389,0 -97.82912065038767,33.28646793409218,0 -97.73830544786857,32.94292410796253,0 -97.18955923717023,33.06880760876531,0 -97.42118522847328,33.35949314194389,0 
					</coordinates>
				</LinearRing>
			</outerBoundaryIs>
		</Polygon>
	</Placemark>
	<Placemark id="0C87E4AD87378EC5EF3C">
		<name>poly5-2</name>
		<visibility>0</visibility>
		<LookAt>
			<longitude>-97.39274966798153</longitude>
			<latitude>32.98208238243124</latitude>
			<altitude>289.2777373788755</altitude>
			<heading>0</heading>
			<tilt>0</tilt>
			<gx:fovy>35</gx:fovy>
			<range>213985.5180436</range>
			<altitudeMode>absolute</altitudeMode>
		</LookAt>
		<styleUrl>#__managed_style_14A5CA946D380EB69F0F</styleUrl>
		<Polygon>
			<outerBoundaryIs>
				<LinearRing>
					<coordinates>
						-97.37834556208352,32.84844796514557,0 -97.49545335634039,32.89196541026958,0 -97.67167588277326,32.69848793952772,0 -97.46145788325121,32.62973035693591,0 -97.37834556208352,32.84844796514557,0 
					</coordinates>
				</LinearRing>
			</outerBoundaryIs>
		</Polygon>
	</Placemark>
	<Placemark id="0FC2D433CA378EC646A4">
		<name>poly5-3</name>
		<visibility>0</visibility>
		<LookAt>
			<longitude>-97.39274966798153</longitude>
			<latitude>32.98208238243124</latitude>
			<altitude>289.2777373788755</altitude>
			<heading>0</heading>
			<tilt>0</tilt>
			<gx:fovy>35</gx:fovy>
			<range>213985.5180436</range>
			<altitudeMode>absolute</altitudeMode>
		</LookAt>
		<styleUrl>#__managed_style_0ED40609A3380EB69F0E</styleUrl>
		<Polygon>
			<outerBoundaryIs>
				<LinearRing>
					<coordinates>
						-96.86952363010602,32.83906987156829,0 -97.04159354405689,32.79477766914139,0 -96.98259006709394,32.55910380856099,0 -96.77749156944711,32.59014089697357,0 -96.86952363010602,32.83906987156829,0 
					</coordinates>
				</LinearRing>
			</outerBoundaryIs>
		</Polygon>
	</Placemark>
	<Placemark id="0423613B3F378EC6A7DE">
		<name>poly5-4</name>
		<visibility>0</visibility>
		<LookAt>
			<longitude>-97.39274966798153</longitude>
			<latitude>32.98208238243124</latitude>
			<altitude>289.2777373788755</altitude>
			<heading>0</heading>
			<tilt>0</tilt>
			<gx:fovy>35</gx:fovy>
			<range>213985.5180436</range>
			<altitudeMode>absolute</altitudeMode>
		</LookAt>
		<styleUrl>#__managed_style_0ED40609A3380EB69F0E</styleUrl>
		<Polygon>
			<outerBoundaryIs>
				<LinearRing>
					<coordinates>
						-96.83478278373912,33.37094781502006,0 -97.01034194147837,33.31809544899185,0 -96.93002175384453,33.21172331379667,0 -96.78842179565454,33.27658316855874,0 -96.83478278373912,33.37094781502006,0 
					</coordinates>
				</LinearRing>
			</outerBoundaryIs>
		</Polygon>
	</Placemark>
	<Placemark id="082959176C378ED7EE39">
		<name>poly6-1</name>
		<visibility>0</visibility>
		<LookAt>
			<longitude>-97.38050205694353</longitude>
			<latitude>32.9640457229879</latitude>
			<altitude>287.4826328884672</altitude>
			<heading>0</heading>
			<tilt>0</tilt>
			<gx:fovy>35</gx:fovy>
			<range>312087.0384440571</range>
			<altitudeMode>absolute</altitudeMode>
		</LookAt>
		<styleUrl>#__managed_style_617C579A99380EB69F0E</styleUrl>
		<Polygon>
			<outerBoundaryIs>
				<LinearRing>
					<coordinates>
						-97.26940120199885,33.24851021789803,0 -96.81403383267804,33.30661340980658,0 -96.88150545493508,33.47156593950547,0 -97.33366696998152,33.45085278634524,0 -97.26940120199885,33.24851021789803,0 
					</coordinates>
				</LinearRing>
			</outerBoundaryIs>
		</Polygon>
	</Placemark>
	<Placemark id="04B957F74A378ED83CE6">
		<name>poly6-2</name>
		<visibility>0</visibility>
		<LookAt>
			<longitude>-97.38050205694353</longitude>
			<latitude>32.9640457229879</latitude>
			<altitude>287.4826328884672</altitude>
			<heading>0</heading>
			<tilt>0</tilt>
			<gx:fovy>35</gx:fovy>
			<range>312087.0384440571</range>
			<altitudeMode>absolute</altitudeMode>
		</LookAt>
		<styleUrl>#__managed_style_617C579A99380EB69F0E</styleUrl>
		<Polygon>
			<outerBoundaryIs>
				<LinearRing>
					<coordinates>
						-96.78076830466652,33.19946918663064,0 -96.94496968490064,33.18132765313625,0 -96.87311623943414,33.04896428653232,0 -96.72439869564825,33.09345473981374,0 -96.78076830466652,33.19946918663064,0 
					</coordinates>
				</LinearRing>
			</outerBoundaryIs>
		</Polygon>
	</Placemark>
	<Placemark id="0A457E30E2378ED87E13">
		<name>poly6-3</name>
		<visibility>0</visibility>
		<LookAt>
			<longitude>-97.38050205694353</longitude>
			<latitude>32.9640457229879</latitude>
			<altitude>287.4826328884672</altitude>
			<heading>0</heading>
			<tilt>0</tilt>
			<gx:fovy>35</gx:fovy>
			<range>312087.0384440571</range>
			<altitudeMode>absolute</altitudeMode>
		</LookAt>
		<styleUrl>#__managed_style_617C579A99380EB69F0E</styleUrl>
		<Polygon>
			<outerBoundaryIs>
				<LinearRing>
					<coordinates>
						-97.22816837981696,33.04259346839407,0 -97.56076315244381,33.00308881174315,0 -97.46164508053408,32.77423132402156,0 -97.14614514773399,32.89565200178477,0 -97.22816837981696,33.04259346839407,0 
					</coordinates>
				</LinearRing>
			</outerBoundaryIs>
		</Polygon>
	</Placemark>
	<Placemark id="0434A226B6378ED8B7F9">
		<name>poly6-4</name>
		<visibility>0</visibility>
		<LookAt>
			<longitude>-97.38050205694353</longitude>
			<latitude>32.9640457229879</latitude>
			<altitude>287.4826328884672</altitude>
			<heading>0</heading>
			<tilt>0</tilt>
			<gx:fovy>35</gx:fovy>
			<range>312087.0384440571</range>
			<altitudeMode>absolute</altitudeMode>
		</LookAt>
		<styleUrl>#__managed_style_617C579A99380EB69F0E</styleUrl>
		<Polygon>
			<outerBoundaryIs>
				<LinearRing>
					<coordinates>
						-97.42312027903969,32.61978050421677,0 -97.35207307596886,32.50277378371765,0 -96.58436066465083,32.6495530718673,0 -96.68697786656456,32.81785037945831,0 -97.42312027903969,32.61978050421677,0 
					</coordinates>
				</LinearRing>
			</outerBoundaryIs>
		</Polygon>
	</Placemark>
	<Placemark id="01EFE2ACAB378ED6DCF8">
		<name>poly7-1</name>
		<visibility>0</visibility>
		<LookAt>
			<longitude>-97.38050205694353</longitude>
			<latitude>32.9640457229879</latitude>
			<altitude>287.4826328884672</altitude>
			<heading>0</heading>
			<tilt>0</tilt>
			<gx:fovy>35</gx:fovy>
			<range>312087.0384440571</range>
			<altitudeMode>absolute</altitudeMode>
		</LookAt>
		<styleUrl>#__managed_style_14A5CA946D380EB69F0F</styleUrl>
		<Polygon>
			<outerBoundaryIs>
				<LinearRing>
					<coordinates>
						-97.32773422608823,33.00549223498615,0 -96.87582246104441,32.93746245661309,0 -96.71189577106884,33.35335769795604,0 -97.11464158906323,33.44510558168521,0 -97.32773422608823,33.00549223498615,0 
					</coordinates>
				</LinearRing>
			</outerBoundaryIs>
		</Polygon>
	</Placemark>
	<Placemark id="0D8A93C210378ED73573">
		<name>poly7-2</name>
		<visibility>0</visibility>
		<LookAt>
			<longitude>-97.38050205694353</longitude>
			<latitude>32.9640457229879</latitude>
			<altitude>287.4826328884672</altitude>
			<heading>0</heading>
			<tilt>0</tilt>
			<gx:fovy>35</gx:fovy>
			<range>312087.0384440571</range>
			<altitudeMode>absolute</altitudeMode>
		</LookAt>
		<styleUrl>#__managed_style_0ED40609A3380EB69F0E</styleUrl>
		<Polygon>
			<outerBoundaryIs>
				<LinearRing>
					<coordinates>
						-97.55131500587713,32.58319795728886,0 -96.7302572492523,32.50442271727161,0 -96.67863059683539,32.73554995930836,0 -97.49709310197979,32.88491542716235,0 -97.55131500587713,32.58319795728886,0 
					</coordinates>
				</LinearRing>
			</outerBoundaryIs>
		</Polygon>
	</Placemark>
	<Placemark id="0B6A546A24378ED5E2E3">
		<name>poly8-1</name>
		<visibility>0</visibility>
		<LookAt>
			<longitude>-97.38050205694353</longitude>
			<latitude>32.9640457229879</latitude>
			<altitude>287.4826328884672</altitude>
			<heading>0</heading>
			<tilt>0</tilt>
			<gx:fovy>35</gx:fovy>
			<range>312087.0384440571</range>
			<altitudeMode>absolute</altitudeMode>
		</LookAt>
		<styleUrl>#__managed_style_617C579A99380EB69F0E</styleUrl>
		<Polygon>
			<outerBoundaryIs>
				<LinearRing>
					<coordinates>
						-97.91777505923095,32.8837659961372,0 -97.68244106667201,32.51058496920619,0 -97.29376907556629,32.7257731485205,0 -97.62858240406433,33.01851801199624,0 -97.91777505923095,32.8837659961372,0 
					</coordinates>
				</LinearRing>
			</outerBoundaryIs>
		</Polygon>
	</Placemark>
	<Placemark id="006F9F3DA5378ED614C6">
		<name>poly8-2</name>
		<visibility>0</visibility>
		<LookAt>
			<longitude>-97.38050205694353</longitude>
			<latitude>32.9640457229879</latitude>
			<altitude>287.4826328884672</altitude>
			<heading>0</heading>
			<tilt>0</tilt>
			<gx:fovy>35</gx:fovy>
			<range>312087.0384440571</range>
			<altitudeMode>absolute</altitudeMode>
		</LookAt>
		<styleUrl>#__managed_style_39F9DE880D380EB69F0E</styleUrl>
		<Polygon>
			<outerBoundaryIs>
				<LinearRing>
					<coordinates>
						-97.0543121695802,33.36931998139962,0 -97.33576348654036,33.27181102428106,0 -96.95185240720592,32.85168307009207,0 -96.65828861763255,32.8820536511558,0 -97.0543121695802,33.36931998139962,0 
					</coordinates>
				</LinearRing>
			</outerBoundaryIs>
		</Polygon>
	</Placemark>
	<Placemark id="065CAB6E40378ED4F388">
		<name>poly9-1</name>
		<visibility>0</visibility>
		<LookAt>
			<longitude>-97.38050205694353</longitude>
			<latitude>32.9640457229879</latitude>
			<altitude>287.4826328884672</altitude>
			<heading>0</heading>
			<tilt>0</tilt>
			<gx:fovy>35</gx:fovy>
			<range>312087.0384440571</range>
			<altitudeMode>absolute</altitudeMode>
		</LookAt>
		<styleUrl>#__managed_style_14A5CA946D380EB69F0F</styleUrl>
		<Polygon>
			<outerBoundaryIs>
				<LinearRing>
					<coordinates>
						-97.30347397579919,33.14226114122673,0 -96.76732816772169,32.96444050822096,0 -96.64544899055286,33.2148154219181,0 -97.193536198484,33.39429610442808,0 -97.30347397579919,33.14226114122673,0 
					</coordinates>
				</LinearRing>
			</outerBoundaryIs>
		</Polygon>
	</Placemark>
	<Placemark id="01EB121EB5378ED546BF">
		<name>poly9-2</name>
		<visibility>0</visibility>
		<LookAt>
			<longitude>-97.38050205694353</longitude>
			<latitude>32.9640457229879</latitude>
			<altitude>287.4826328884672</altitude>
			<heading>0</heading>
			<tilt>0</tilt>
			<gx:fovy>35</gx:fovy>
			<range>312087.0384440571</range>
			<altitudeMode>absolute</altitudeMode>
		</LookAt>
		<styleUrl>#__managed_style_14A5CA946D380EB69F0F</styleUrl>
		<Polygon>
			<outerBoundaryIs>
				<LinearRing>
					<coordinates>
						-97.31148492564344,32.94232793767446,0 -97.40490251404157,32.79476450773907,0 -96.93940237650571,32.52511928084476,0 -96.7429524620896,32.7013321404532,0 -97.31148492564344,32.94232793767446,0 
					</coordinates>
				</LinearRing>
			</outerBoundaryIs>
		</Polygon>
	</Placemark>
	<Placemark id="002DAFE57E366EC4514C">
		<name>Origin2</name>
		<visibility>0</visibility>
		<LookAt>
			<longitude>-97.37867453905567</longitude>
			<latitude>33.17246282846624</latitude>
			<altitude>281.0807879308279</altitude>
			<heading>0.06682437209191484</heading>
			<tilt>0</tilt>
			<gx:fovy>34.9999989219079</gx:fovy>
			<range>267360.8370592073</range>
			<altitudeMode>absolute</altitudeMode>
		</LookAt>
		<styleUrl>#__managed_style_0FE8817E7B380EB69F10</styleUrl>
		<Point>
			<coordinates>-97.9661793629505,33.1490325674508,388.024981579194</coordinates>
		</Point>
	</Placemark>
	<Placemark id="08331E8D82366EC4E2C9">
		<name>Origin3</name>
		<visibility>0</visibility>
		<LookAt>
			<longitude>-97.37867453905567</longitude>
			<latitude>33.17246282846624</latitude>
			<altitude>281.0807879308279</altitude>
			<heading>0.06682437208646076</heading>
			<tilt>0</tilt>
			<gx:fovy>34.9999989219079</gx:fovy>
			<range>267360.8370592073</range>
			<altitudeMode>absolute</altitudeMode>
		</LookAt>
		<styleUrl>#__managed_style_0FE8817E7B380EB69F10</styleUrl>
		<Point>
			<coordinates>-97.96549765982513,32.89312439447734,0</coordinates>
		</Point>
	</Placemark>
	<Placemark id="0555F1EB8B366EC51E90">
		<name>Origin4</name>
		<visibility>0</visibility>
		<LookAt>
			<longitude>-97.37867455216485</longitude>
			<latitude>33.17246288286581</latitude>
			<altitude>281.0807856772929</altitude>
			<heading>0.06682437208646076</heading>
			<tilt>0</tilt>
			<gx:fovy>34.9999989219079</gx:fovy>
			<range>267360.8370592073</range>
			<altitudeMode>absolute</altitudeMode>
		</LookAt>
		<styleUrl>#__managed_style_0FE8817E7B380EB69F10</styleUrl>
		<Point>
			<coordinates>-97.95661292463471,32.72193608363082,0</coordinates>
		</Point>
	</Placemark>
	<Placemark id="046B160423366EC53C7C">
		<name>Origin5</name>
		<visibility>0</visibility>
		<LookAt>
			<longitude>-97.37867455216485</longitude>
			<latitude>33.17246288286581</latitude>
			<altitude>281.0807856772929</altitude>
			<heading>0.06682437208646076</heading>
			<tilt>0</tilt>
			<gx:fovy>34.9999989219079</gx:fovy>
			<range>267360.8370592073</range>
			<altitudeMode>absolute</altitudeMode>
		</LookAt>
		<styleUrl>#__managed_style_0FE8817E7B380EB69F10</styleUrl>
		<Point>
			<coordinates>-97.94130006528972,32.55268476853911,0</coordinates>
		</Point>
	</Placemark>
	<Placemark id="0572568F37366EC562A8">
		<name>Destination1</name>
		<visibility>0</visibility>
		<LookAt>
			<longitude>-97.37867455216485</longitude>
			<latitude>33.17246288286581</latitude>
			<altitude>281.0807856772929</altitude>
			<heading>0.06682437208646076</heading>
			<tilt>0</tilt>
			<gx:fovy>34.9999989219079</gx:fovy>
			<range>267360.8370592073</range>
			<altitudeMode>absolute</altitudeMode>
		</LookAt>
		<styleUrl>#__managed_style_0FE8817E7B380EB69F10</styleUrl>
		<Point>
			<coordinates>-96.25588331302475,33.41547011509311,0</coordinates>
		</Point>
	</Placemark>
	<Placemark id="0E77E4DD32366EC57AB7">
		<name>Destination2</name>
		<visibility>0</visibility>
		<LookAt>
			<longitude>-97.37867455216485</longitude>
			<latitude>33.17246288286581</latitude>
			<altitude>281.0807856772929</altitude>
			<heading>0.06682437208646076</heading>
			<tilt>0</tilt>
			<gx:fovy>34.9999989219079</gx:fovy>
			<range>267360.8370592073</range>
			<altitudeMode>absolute</altitudeMode>
		</LookAt>
		<styleUrl>#__managed_style_0FE8817E7B380EB69F10</styleUrl>
		<Point>
			<coordinates>-96.2504281306996,33.21699922749463,168.7009468134567</coordinates>
		</Point>
	</Placemark>
	<Placemark id="0B41ADCEF0366EC5A586">
		<name>Destination3</name>
		<visibility>0</visibility>
		<LookAt>
			<longitude>-97.37867455216485</longitude>
			<latitude>33.17246288286581</latitude>
			<altitude>281.0807856772929</altitude>
			<heading>0.06682437208646076</heading>
			<tilt>0</tilt>
			<gx:fovy>34.9999989219079</gx:fovy>
			<range>267360.8370592073</range>
			<altitudeMode>absolute</altitudeMode>
		</LookAt>
		<styleUrl>#__managed_style_0FE8817E7B380EB69F10</styleUrl>
		<Point>
			<coordinates>-96.25434315117978,33.01794695368554,0</coordinates>
		</Point>
	</Placemark>
	<Placemark id="07618E6C83366EC5C6F6">
		<name>Destination4</name>
		<visibility>0</visibility>
		<LookAt>
			<longitude>-97.37867455216485</longitude>
			<latitude>33.17246288286581</latitude>
			<altitude>281.0807856772929</altitude>
			<heading>0.06682437208646076</heading>
			<tilt>0</tilt>
			<gx:fovy>34.9999989219079</gx:fovy>
			<range>267360.8370592073</range>
			<altitudeMode>absolute</altitudeMode>
		</LookAt>
		<styleUrl>#__managed_style_0FE8817E7B380EB69F10</styleUrl>
		<Point>
			<coordinates>-96.25481766516306,32.82613461836843,0</coordinates>
		</Point>
	</Placemark>
</Document>
</kml>
