<?xml version="1.0" encoding="UTF-8"?>
<kml xmlns="http://www.opengis.net/kml/2.2" xmlns:gx="http://www.google.com/kml/ext/2.2">
    <Document id="1">
        <Style id="6">
            <PolyStyle id="7">
                <color>330000ff</color>
                <colorMode>normal</colorMode>
                <fill>1</fill>
                <outline>1</outline>
            </PolyStyle>
        </Style>
        <Style id="38">
            <LineStyle id="39">
                <color>ff008000</color>
                <colorMode>normal</colorMode>
                <width>5</width>
            </LineStyle>
        </Style>
        <Placemark id="3">
            <name>FlyZone</name>
            <styleUrl>#6</styleUrl>
            <Polygon id="2">
                <outerBoundaryIs>
                    <LinearRing id="4">
                        <coordinates>-98.2545517402149,33.48850606662594,0.0 -98.2545517402149,32.47083164493976,0.0 -95.77515854991914,32.47083164493976,0.0 -95.77515854991914,33.48850606662594,0.0 -98.2545517402149,33.48850606662594,0.0</coordinates>
                    </LinearRing>
                </outerBoundaryIs>
            </Polygon>
        </Placemark>
        <Placemark id="9">
            <name>poly1-2</name>
            <Polygon id="8">
                <outerBoundaryIs>
                    <LinearRing id="10">
                        <coordinates>-97.1243645856891,33.40334012772267,0.0 -97.18225996655588,33.34951062719795,0.0 -97.22127927394028,33.2509625560328,0.0 -97.2769026704747,33.25095151666823,0.0 -97.35053084182765,33.18626184382936,0.0 -97.34571896380301,33.14116378960552,0.0 -97.26449471135079,33.12021819229805,0.0 -97.14913734104879,33.16528352510466,0.0 -97.06521691705302,33.24959615601898,0.0 -97.03782507015643,33.30859888396222,0.0 -97.07678846067505,33.38943631351887,0.0 -97.1243645856891,33.40334012772267,0.0</coordinates>
                    </LinearRing>
                </outerBoundaryIs>
            </Polygon>
        </Placemark>
        <Placemark id="13">
            <name>poly1-1</name>
            <Polygon id="12">
                <outerBoundaryIs>
                    <LinearRing id="14">
                        <coordinates>-96.54800007532069,33.4126862748174,0.0 -96.67724624677449,33.39953342143448,0.0 -96.79854870750536,33.40315735383587,0.0 -96.9008223074059,33.3549182272522,0.0 -97.01002903232073,33.280148965073,0.0 -97.01854732455509,33.18484857534865,0.0 -97.07417765643392,33.08915580444943,0.0 -97.18157777841006,33.0340383243324,0.0 -97.1968419472149,32.9622766249389,0.0 -97.16377054367337,32.86562671906452,0.0 -97.06198623056306,32.88061575063585,0.0 -96.93972414851375,32.91529068556095,0.0 -96.80918241176684,32.89350335584624,0.0 -96.748681039548,32.83693865080048,0.0 -96.65997878717577,32.87441141483873,0.0 -96.57134919810017,33.03363699488611,0.0 -96.51112834304963,33.0860744974591,0.0 -96.5039643949901,33.22918970901063,0.0 -96.58800705620038,33.33790208913587,0.0 -96.54800007532069,33.4126862748174,0.0</coordinates>
                    </LinearRing>
                </outerBoundaryIs>
            </Polygon>
        </Placemark>
        <Placemark id="17">
            <name>poly1-3</name>
            <Polygon id="16">
                <outerBoundaryIs>
                    <LinearRing id="18">
                        <coordinates>-97.35097344293217,32.96490195695468,0.0 -97.42432019045451,32.93599644142516,0.0 -97.53345457498887,32.93942045097596,0.0 -97.57471518197532,32.82873780116657,0.0 -97.56514613979544,32.69691203536345,0.0 -97.56502042193083,32.64952398488501,0.0 -97.47324592691831,32.6479917641476,0.0 -97.43058344485686,32.71177392925026,0.0 -97.27043815230702,32.8014487178027,0.0 -97.22531131086298,32.91023378921392,0.0 -97.30191959887746,33.04566097952262,0.0 -97.35097344293217,32.96490195695468,0.0</coordinates>
                    </LinearRing>
                </outerBoundaryIs>
            </Polygon>
        </Placemark>
        <Placemark id="21">
            <name>poly1-4</name>
            <Polygon id="20">
                <outerBoundaryIs>
                    <LinearRing id="22">
                        <coordinates>-97.24730273177143,32.75657410059582,0.0 -97.32120868425238,32.73580893932525,0.0 -97.3235735560178,32.65866455792086,0.0 -97.26068290498452,32.65924356905031,0.0 -97.24730273177143,32.75657410059582,0.0</coordinates>
                    </LinearRing>
                </outerBoundaryIs>
            </Polygon>
        </Placemark>
        <Placemark id="25">
            <name>poly1-6</name>
            <Polygon id="24">
                <outerBoundaryIs>
                    <LinearRing id="26">
                        <coordinates>-96.93646782611232,32.63754968732464,0.0 -96.94831049137834,32.63595974948907,0.0 -96.95783031262151,32.62930284274312,0.0 -96.963960957345,32.61875442377875,0.0 -96.97085087386398,32.6030103017271,0.0 -96.95662696960858,32.59895039608379,0.0 -96.93881091929472,32.59570878909459,0.0 -96.91833166752228,32.60366980947028,0.0 -96.91431535842173,32.60951775300579,0.0 -96.9070234948593,32.62398593776363,0.0 -96.90498103771183,32.63062455384391,0.0 -96.93646782611232,32.63754968732464,0.0</coordinates>
                    </LinearRing>
                </outerBoundaryIs>
            </Polygon>
        </Placemark>
        <Placemark id="29">
            <name>poly1-7</name>
            <Polygon id="28">
                <outerBoundaryIs>
                    <LinearRing id="30">
                        <coordinates>-96.66850529016706,32.76642694451947,0.0 -96.81623840559945,32.74297167386639,0.0 -96.86171154122451,32.699993782025,0.0 -96.83297488590384,32.67832449375094,0.0 -96.72411690327426,32.66191266683341,0.0 -96.66583631227574,32.66278657968628,0.0 -96.65241281587346,32.71243460366691,0.0 -96.66850529016706,32.76642694451947,0.0</coordinates>
                    </LinearRing>
                </outerBoundaryIs>
            </Polygon>
        </Placemark>
        <Placemark id="33">
            <name>Origin1</name>
            <Point id="32">
                <coordinates>-98.15743184904095,33.09300759945543,388.024981579194</coordinates>
            </Point>
        </Placemark>
        <Placemark id="35">
            <name>Destination3</name>
            <Point id="34">
                <coordinates>-95.82447000615262,32.9746610701633,0.0</coordinates>
            </Point>
        </Placemark>
        <Placemark id="37">
            <name>PolySolution</name>
            <styleUrl>#38</styleUrl>
            <LineString id="36">
                <coordinates>-98.15743184904095,33.09300759945543,388.024981579194 -98.15743,33.45,388.024981579194 -96.0,33.45,388.024981579194 -95.82447000615262,32.9746610701633,0.0</coordinates>
            </LineString>
        </Placemark>
    </Document>
</kml>
