<?xml version="1.0" encoding="UTF-8"?>
<kml xmlns="http://www.opengis.net/kml/2.2" xmlns:gx="http://www.google.com/kml/ext/2.2">
    <Document id="1">
        <Style id="22">
            <PolyStyle id="23">
                <color>330000ff</color>
                <colorMode>normal</colorMode>
                <fill>1</fill>
                <outline>1</outline>
            </PolyStyle>
        </Style>
        <Style id="26">
            <LineStyle id="27">
                <color>ff008000</color>
                <colorMode>normal</colorMode>
                <width>5</width>
            </LineStyle>
        </Style>
        <Placemark id="3">
            <name>poly2-1</name>
            <Polygon id="2">
                <outerBoundaryIs>
                    <LinearRing id="4">
                        <coordinates>-96.92398903586647,33.36248178193063,1500.0 -96.94602827592331,33.35328100185202,1500.0 -96.96806751598011,33.33487944169478,1500.0 -96.97908713600853,33.31647788153754,1500.0 -97.16642067649148,32.98524979870729,1500.0 -97.1774402965199,32.92084433815696,1500.0 -97.1774402965199,32.82883653737078,1500.0 -97.11132257634944,32.77363185689907,1500.0 -96.94602827592331,32.71842717642736,1500.0 -96.91296941583806,32.71842717642736,1500.0 -96.89093017578125,32.72762795650598,1500.0 -96.85787131569602,32.75523029674184,1500.0 -96.54932195490056,33.03125369910038,1500.0 -96.53830233487216,33.04965525925761,1500.0 -96.53830233487216,33.06805681941485,1500.0 -96.57136119495739,33.41768646240234,1500.0 -96.68155739524148,33.41768646240234,1500.0 -96.92398903586647,33.36248178193063,1500.0</coordinates>
                    </LinearRing>
                </outerBoundaryIs>
            </Polygon>
        </Placemark>
        <Placemark id="7">
            <name>poly2-2</name>
            <Polygon id="6">
                <outerBoundaryIs>
                    <LinearRing id="8">
                        <coordinates>-96.91296941583806,32.6356201557198,1500.0 -96.94602827592331,32.6356201557198,1500.0 -96.9570478959517,32.62641937564118,1500.0 -96.96806751598011,32.60801781548394,1500.0 -96.96806751598011,32.59881703540533,1500.0 -96.94602827592331,32.59881703540533,1500.0 -96.92398903586647,32.60801781548394,1500.0 -96.91296941583806,32.62641937564118,1500.0 -96.91296941583806,32.6356201557198,1500.0</coordinates>
                    </LinearRing>
                </outerBoundaryIs>
            </Polygon>
        </Placemark>
        <Placemark id="11">
            <name>poly2-3</name>
            <Polygon id="10">
                <outerBoundaryIs>
                    <LinearRing id="12">
                        <coordinates>-97.10030295632102,32.67242327603427,1500.0 -97.11132257634944,32.67242327603427,1500.0 -97.15540105646308,32.65402171587703,1500.0 -97.16642067649148,32.64482093579841,1500.0 -97.1774402965199,32.62641937564118,1500.0 -97.1774402965199,32.60801781548394,1500.0 -97.14438143643466,32.60801781548394,1500.0 -97.12234219637784,32.61721859556256,1500.0 -97.10030295632102,32.6356201557198,1500.0 -97.08928333629261,32.65402171587703,1500.0 -97.08928333629261,32.66322249595565,1500.0 -97.10030295632102,32.67242327603427,1500.0</coordinates>
                    </LinearRing>
                </outerBoundaryIs>
            </Polygon>
        </Placemark>
        <Placemark id="15">
            <name>Origin</name>
            <Point id="14">
                <coordinates>-95.85123022,32.50449705,150.1677986377836</coordinates>
            </Point>
        </Placemark>
        <Placemark id="17">
            <name>Destination</name>
            <Point id="16">
                <coordinates>-98.21946506508321,33.34275509954574,274.2121167616264</coordinates>
            </Point>
        </Placemark>
        <Placemark id="19">
            <name>FlyZone</name>
            <styleUrl>#22</styleUrl>
            <Polygon id="18">
                <outerBoundaryIs>
                    <LinearRing id="20">
                        <coordinates>-98.2545517402149,33.48850606662594,0.0 -98.2545517402149,32.47083164493976,0.0 -95.77515854991914,32.47083164493976,0.0 -95.77515854991914,33.48850606662594,0.0 -98.2545517402149,33.48850606662594,0.0</coordinates>
                    </LinearRing>
                </outerBoundaryIs>
            </Polygon>
        </Placemark>
        <Placemark id="25">
            <name>PolySolution</name>
            <styleUrl>#26</styleUrl>
            <LineString id="24">
                <coordinates>-95.85123022,32.50449705,150.1677986377836 -97.3,32.5045,150.0 -97.3,33.34276,274.0 -98.21946506508321,33.34275509954574,274.2121167616264</coordinates>
            </LineString>
        </Placemark>
    </Document>
</kml>
